FLOCK 4BE-14            
1 60517U 24149BB  26183.49005639  .00019639  00000+0  46999-3 0  9992
2 60517  97.3695 267.3934 0004064 219.5234 140.5717 15.41487613104688
FLOCK 4BE-1             
1 60518U 24149BC  26183.16571831  .00021496  00000+0  48720-3 0  9997
2 60518  97.3782 268.3976 0003817 220.0575 140.0391 15.43104379104683
FLOCK 4BE-28            
1 60519U 24149BD  26183.54593183  .00019463  00000+0  40790-3 0  9994
2 60519  97.3750 269.5550 0003886 212.3345 147.7666 15.45447882104810
IPERDRONE.0             
1 60520U 24149BE  26183.81629110  .00088885  00000+0  76324-3 0  9992
2 60520  97.3781 277.8253 0004274 194.7168 165.3970 15.69081301105367
TRANSPORTER-11 OBJECT BF
1 60521U 24149BF  26183.74761662  .00419468  71698-4  11222-2 0  9990
2 60521  97.3730 280.9922 0007051 231.7350 128.3291 15.94434281105554
CONNECTA IOT-2          
1 60522U 24149BG  26183.47825426  .00005495  00000+0  22902-3 0  9993
2 60522  97.3838 261.3928 0004820 268.9684  91.1002 15.24103599104224
CONNECTA IOT-4          
1 60524U 24149BJ  26183.19367168  .00023542  00000+0  54017-3 0  9993
2 60524  97.3800 267.7462 0004910 220.1205 139.9680 15.42713951104645
ORESAT0.5               
1 60525U 24149BK  26183.20560332  .00022883  00000+0  47559-3 0  9994
2 60525  97.3730 269.4410 0005070 209.2676 150.8290 15.45654190104795
DEIMOS                  
1 60526U 24149BL  26183.50538355  .00021587  00000+0  46241-3 0  9995
2 60526  97.3785 269.8778 0004960 214.2987 145.7942 15.44776747104817
CUAVA-2                 
1 60527U 24149BM  26183.65028598  .00012803  00000+0  36168-3 0  9993
2 60527  97.3725 265.1985 0005759 226.2602 133.8166 15.36473501104544
ERNST                   
1 60528U 24149BN  26183.51045312  .00015912  00000+0  40559-3 0  9995
2 60528  97.3808 267.3482 0005045 226.3529 133.7299 15.39610069104631
TORO                    
1 60530U 24149BQ  26183.15100109  .00002792  00000+0  25095-3 0  9994
2 60530  97.6779 257.5395 0001459  98.9397 261.1990 14.96476353102190
HYPSO-2                 
1 60531U 24149BR  26183.48889800  .00003900  00000+0  32777-3 0  9990
2 60531  97.6816 259.5254 0001569 116.9924 243.1459 14.98867281102341
LEMU NGE                
1 60532U 24149BS  26183.64644057  .00002093  00000+0  19651-3 0  9990
2 60532  97.6840 258.2939 0001242  51.3385 308.7946 14.95019459102269
LEMUR-2-STELLA          
1 60533U 24149BT  26183.17109079  .00013479  00000+0  78522-3 0  9991
2 60533  97.6740 265.6937 0001148 101.5384 258.5975 15.12128587102763
SATELIOT_2              
1 60534U 24149BU  26183.47309495  .00002522  00000+0  22752-3 0  9990
2 60534  97.6817 258.1505 0001626  89.1598 270.9809 14.96415016102251
NIGHTJAR                
1 60535U 24149BV  26183.81174654  .00003929  00000+0  32820-3 0  9995
2 60535  97.6826 260.2991 0001481 116.7663 243.3712 14.99101679145214
LEMUR-2-MARHISYAM       
1 60536U 24149BW  26183.48794242  .00011348  00000+0  67230-3 0  9997
2 60536  97.6884 266.4769 0003268  90.7390 269.4214 15.11560020102799
SATELIOT_4              
1 60537U 24149BX  26183.68138887  .00002501  00000+0  22395-3 0  9991
2 60537  97.6734 257.8716 0001871  31.6215 328.5119 14.96720959102295
PICO-02A021             
1 60538U 24149BY  26183.67510904  .00005772  00000+0  42879-3 0  9997
2 60538  97.6761 262.3754 0003612 348.8035  11.3109 15.03403483102067
ICEYE-X43               
1 60539U 24149BZ  26183.17478114  .00004276  00000+0  35086-3 0  9999
2 60539  97.6823 259.9372 0007655  39.0267 321.1508 14.99728540102368
HAWK-10A                
1 60540U 24149CA  26183.68172659  .00002052  00000+0  18541-3 0  9999
2 60540  97.6888 259.3268 0003938  42.2946 317.8579 14.96559628102309
UMBRA-09                
1 60541U 24149CB  26183.81911439  .00018034  00000+0  87575-3 0  9992
2 60541  97.6973 271.2965 0001422 228.8226 131.2885 15.18519325103091
QPS-SAR-8 (AMATERU-IV)  
1 60542U 24149CC  26183.62678088  .00006519  00000+0  47232-3 0  9993
2 60542  97.6668 262.6477 0004247  72.6402 287.5288 15.04293167102598
ARCTIC WEATHER SATELLITE
1 60543U 24149CD  26183.46725715  .00001202  00000+0  13084-3 0  9998
2 60543  97.6797 253.4958 0003551  74.9350 285.2260 14.89809395101578
CAPELLA-15 (ACADIA-5)   
1 60544U 24149CE  26183.81052644  .00005662  00000+0  55795-3 0  9991
2 60544  97.6765 256.3232 0003822  31.0112 329.1333 14.92416006102186
HAWK-10B                
1 60545U 24149CF  26183.68158700  .00002097  00000+0  18934-3 0  9990
2 60545  97.6810 258.6661 0006211  53.3259 306.8533 14.96559258102302
ICEYE-X39               
1 60546U 24149CG  26183.22037630  .00004373  00000+0  35634-3 0  9994
2 60546  97.6767 260.0399 0006718  80.4764 279.7218 14.99990046102375
UMBRA-10                
1 60547U 24149CH  26183.81866605  .00018849  00000+0  91503-3 0  9992
2 60547  97.6980 271.3251 0000766 176.3276 183.7963 15.18521663103105
ICEYE-X33               
1 60548U 24149CJ  26183.16954250  .00005375  00000+0  42739-3 0  9992
2 60548  97.7312 262.2259 0001893  44.8492 315.2885 15.00850601102454
